OBJECT_NAME,OBJECT_ID,EPOCH,MEAN_MOTION,ECCENTRICITY,INCLINATION,RA_OF_ASC_NODE,ARG_OF_PERICENTER,MEAN_ANOMALY,EPHEMERIS_TYPE,CLASSIFICATION_TYPE,NORAD_CAT_ID,ELEMENT_SET_NO,REV_AT_EPOCH,BSTAR,MEAN_MOTION_DOT,MEAN_MOTION_DDOT
INTELSAT 906 (IS-906),2002-041A,2026-06-18T04:57:21.563712,1.00275136,.0004397,5.8051,72.9092,2.8775,329.1640,0,U,27513,999,8703,0,.4E-7,0
NIMIQ 2,2002-062A,2026-06-18T18:52:06.960288,1.00272078,.00055079,9.4507,56.8840,24.8551,359.1159,0,U,27632,999,4420,0,-.79E-6,0
USA 167,2003-008A,2026-06-18T08:42:53.490240,1.00272764,.0003974,10.9644,43.4005,313.1565,279.0713,0,U,27691,999,678,0,-.8E-7,0
USA 169 (MILSTAR-2 4),2003-012A,2026-06-18T13:37:23.077344,1.00272901,.0100691,12.3520,29.8330,9.2091,224.2547,0,U,27711,999,3296,0,-.268E-5,0
ASIASAT 4,2003-014A,2026-06-18T07:28:51.707712,1.00269957,.0002965,4.7068,75.7338,16.3860,74.1793,0,U,27718,999,4531,0,-.231E-5,0
HELLAS-SAT 2,2003-020A,2026-06-18T00:53:49.513632,1.00271225,.00025081,7.3576,67.8748,25.3814,176.4580,0,U,27811,999,4285,0,-.93E-6,0
THURAYA-2,2003-026A,2026-06-18T18:14:22.150176,1.00271718,.0003023,8.8422,31.9696,11.8671,180.7514,0,U,27825,999,8436,0,.115E-5,0
OPTUS C1,2003-028B,2026-06-18T13:39:40.802400,1.00272238,.00055344,6.8940,69.3939,14.0870,183.9950,0,U,27831,999,5307,0,-.16E-5,0
USA 170,2003-040A,2026-06-18T19:52:56.086752,1.00269091,.000177,10.5045,47.9342,66.2091,115.3880,0,U,27875,999,3301,0,.115E-5,0
GALAXY 13 (HORIZONS-1),2003-044A,2026-06-18T15:37:56.150112,1.00271682,.00022272,1.4228,83.8471,355.5372,271.9736,0,U,27954,999,4658,0,.126E-5,0
YAMAL 202,2003-053A,2026-06-18T13:41:55.587264,1.00271104,.0003215,6.3463,70.9209,1.8573,203.0771,0,U,28089,999,8271,0,-.89E-6,0
UFO 11 (USA 174),2003-057A,2026-06-18T20:54:28.473696,1.00271736,.00024109,8.9396,33.8193,63.0329,199.4875,0,U,28117,999,8246,0,-.115E-5,0
USA 176 (DSP 22),2004-004A,2026-06-11T23:21:41.975136,1.00406369,.0001239,12.0550,26.1076,290.9902,243.8917,0,U,28158,999,3288,0,-.286E-5,0
ABS-4 (MOBISAT-1),2004-007A,2026-06-18T19:27:21.519936,1.00273965,.00051138,6.0454,71.9884,15.0167,172.8680,0,U,28184,999,5235,0,.3E-6,0
INTELSAT 10-02,2004-022A,2026-06-18T21:28:23.176416,1.00271761,.00001894,0.0178,304.9806,226.3646,56.8712,0,U,28358,999,8057,0,-.17E-6,0
ANIK F2,2004-027A,2026-06-18T20:56:58.235136,1.00271270,.00040122,3.2926,79.4229,8.8245,21.9681,0,U,28378,999,4128,0,-.57E-6,0
AMC-15,2004-041A,2026-06-18T20:58:43.066848,1.00271291,.00022624,0.0149,349.4119,81.8669,45.4503,0,U,28446,999,7932,0,-.95E-6,0
NSS-10,2005-003A,2026-06-18T00:46:05.256192,1.00269632,.00026856,6.4524,70.4443,11.8641,158.0247,0,U,28526,999,5316,0,-.261E-5,0
INMARSAT 4-F1,2005-009A,2026-06-18T18:54:06.097248,1.00271302,.0002613,5.1714,42.7664,44.2002,281.6887,0,U,28628,999,7768,0,.24E-6,0
DIRECTV 8,2005-019A,2026-06-18T20:54:43.451136,1.00269928,.00029937,0.0191,13.0519,80.4662,8.2209,0,U,28659,999,7709,0,0,0
GALAXY 28 (G-28),2005-022A,2026-06-18T19:38:01.883904,1.00271033,.00028514,3.3024,78.9149,8.2458,87.3200,0,U,28702,999,5199,0,-.208E-5,0
THAICOM 4,2005-028A,2026-06-18T22:02:44.634624,1.00270974,.00016888,0.2509,85.8023,349.2234,282.3156,0,U,28786,999,5226,0,-.369E-5,0
ANIK F1R,2005-036A,2026-06-18T20:58:05.627136,1.00270944,.00040986,4.3180,76.5599,3.4456,34.3297,0,U,28868,999,4647,0,-.83E-6,0
SYRACUSE 3A,2005-041B,2026-06-17T21:44:44.304576,1.00275455,.00028929,4.6443,75.8301,353.1848,210.0211,0,U,28885,999,7575,0,.121E-5,0
INMARSAT 4-F2,2005-044A,2026-06-18T22:09:36.476640,1.00273058,.00030555,5.0977,43.7028,36.4850,302.8513,0,U,28899,999,7553,0,-.269E-5,0
METEOSAT-9 (MSG-2),2005-049B,2026-06-18T19:58:55.513344,1.00272994,.00017165,9.3658,54.1535,345.3182,212.9689,0,U,28912,999,701,0,.114E-5,0
EUTELSAT 174A,2005-052A,2026-06-18T20:35:37.781952,1.00271752,.00062293,4.2248,76.5077,9.8567,303.5867,0,U,28924,999,5234,0,.1E-7,0
ECHOSTAR 10,2006-003A,2026-06-18T20:57:05.723424,1.00270612,.00013757,0.0165,351.5466,81.9984,37.6255,0,U,28935,999,7448,0,-.61E-6,0
SPAINSAT,2006-007A,2026-06-18T08:14:32.491104,1.00272730,.00047537,0.5673,86.5058,357.2228,276.3133,0,U,28945,999,7423,0,-.223E-5,0
JCSAT-5A,2006-010A,2026-06-18T22:06:14.299776,1.00271988,.00019556,1.1150,84.1985,346.9947,299.5684,0,U,29045,999,7378,0,-.334E-5,0
ASTRA 1KR,2006-012A,2026-06-18T21:34:00.137280,1.00272362,.00033479,0.4793,83.2038,0.1563,166.2439,0,U,29055,999,4571,0,.112E-5,0
GALAXY 16 (G-16),2006-023A,2026-06-18T21:00:27.900288,1.00271481,.00025171,0.0117,97.4765,346.7012,39.0426,0,U,29236,999,7299,0,-.133E-5,0
