INTELSAT 906 (IS-906)   
1 27513U 02041A   26169.20649958  .00000004  00000+0  00000+0 0  9994
2 27513   5.8051  72.9092 0004397   2.8775 329.1640  1.00275136 87038
NIMIQ 2                 
1 27632U 02062A   26169.78619167 -.00000079  00000+0  00000+0 0  9994
2 27632   9.4507  56.8840 0005507  24.8551 359.1159  1.00272078 44200
USA 167                 
1 27691U 03008A   26169.36311910 -.00000008  00000+0  00000+0 0  9991
2 27691  10.9644  43.4005 0003974 313.1565 279.0713  1.00272764  6783
USA 169 (MILSTAR-2 4)   
1 27711U 03012A   26169.56762821 -.00000268  00000+0  00000+0 0  9990
2 27711  12.3520  29.8330 0100691   9.2091 224.2547  1.00272901 32964
ASIASAT 4               
1 27718U 03014A   26169.31170958 -.00000231  00000+0  00000+0 0  9996
2 27718   4.7068  75.7338 0002965  16.3860  74.1793  1.00269957 45314
HELLAS-SAT 2            
1 27811U 03020A   26169.03737863 -.00000093  00000+0  00000+0 0  9996
2 27811   7.3576  67.8748 0002508  25.3814 176.4580  1.00271225 42857
THURAYA-2               
1 27825U 03026A   26169.75997859  .00000115  00000+0  00000+0 0  9993
2 27825   8.8422  31.9696 0003023  11.8671 180.7514  1.00271718 84360
OPTUS C1                
1 27831U 03028B   26169.56922225 -.00000160  00000+0  00000+0 0  9997
2 27831   6.8940  69.3939 0005534  14.0870 183.9950  1.00272238 53071
USA 170                 
1 27875U 03040A   26169.82842693  .00000115  00000+0  00000+0 0  9997
2 27875  10.5045  47.9342 0001770  66.2091 115.3880  1.00269091 33015
GALAXY 13 (HORIZONS-1)  
1 27954U 03044A   26169.65134433  .00000126  00000+0  00000+0 0  9998
2 27954   1.4228  83.8471 0002227 355.5372 271.9736  1.00271682 46585
YAMAL 202               
1 28089U 03053A   26169.57078226 -.00000089  00000+0  00000+0 0  9995
2 28089   6.3463  70.9209 0003215   1.8573 203.0771  1.00271104 82717
UFO 11 (USA 174)        
1 28117U 03057A   26169.87116289 -.00000115  00000+0  00000+0 0  9996
2 28117   8.9396  33.8193 0002410  63.0329 199.4875  1.00271736 82463
USA 176 (DSP 22)        
1 28158U 04004A   26162.97340249 -.00000286  00000+0  00000+0 0  9992
2 28158  12.0550  26.1076 0001239 290.9902 243.8917  1.00406369 32881
ABS-4 (MOBISAT-1)       
1 28184U 04007A   26169.81066574  .00000030  00000+0  00000+0 0  9996
2 28184   6.0454  71.9884 0005113  15.0167 172.8680  1.00273965 52351
INTELSAT 10-02          
1 28358U 04022A   26169.89471269 -.00000017  00000+0  00000+0 0  9991
2 28358   0.0178 304.9806 0000189 226.3646  56.8712  1.00271761 80575
ANIK F2                 
1 28378U 04027A   26169.87289624 -.00000057  00000+0  00000+0 0  9992
2 28378   3.2926  79.4229 0004012   8.8245  21.9681  1.00271270 41281
AMC-15                  
1 28446U 04041A   26169.87410957 -.00000095  00000+0  00000+0 0  9991
2 28446   0.0149 349.4119 0002262  81.8669  45.4503  1.00271291 79326
NSS-10                  
1 28526U 05003A   26169.03200528 -.00000261  00000+0  00000+0 0  9993
2 28526   6.4524  70.4443 0002685  11.8641 158.0247  1.00269632 53161
INMARSAT 4-F1           
1 28628U 05009A   26169.78757057  .00000024  00000+0  00000+0 0  9994
2 28628   5.1714  42.7664 0002613  44.2002 281.6887  1.00271302 77683
DIRECTV 8               
1 28659U 05019A   26169.87133624  .00000000  00000+0  00000+0 0  9991
2 28659   0.0191  13.0519 0002993  80.4662   8.2209  1.00269928 77092
GALAXY 28 (G-28)        
1 28702U 05022A   26169.81807736 -.00000208  00000+0  00000+0 0  9991
2 28702   3.3024  78.9149 0002851   8.2458  87.3200  1.00271033 51995
THAICOM 4               
1 28786U 05028A   26169.91857216 -.00000369  00000+0  00000+0 0  9996
2 28786   0.2509  85.8023 0001688 349.2234 282.3156  1.00270974 52267
ANIK F1R                
1 28868U 05036A   26169.87367624 -.00000083  00000+0  00000+0 0  9993
2 28868   4.3180  76.5599 0004098   3.4456  34.3297  1.00270944 46470
SYRACUSE 3A             
1 28885U 05041B   26168.90606834  .00000121  00000+0  00000+0 0  9992
2 28885   4.6443  75.8301 0002892 353.1848 210.0211  1.00275455 75751
INMARSAT 4-F2           
1 28899U 05044A   26169.92333885 -.00000269  00000+0  00000+0 0  9990
2 28899   5.0977  43.7028 0003055  36.4850 302.8513  1.00273058 75537
METEOSAT-9 (MSG-2)      
1 28912U 05049B   26169.83258696  .00000114  00000+0  00000+0 0  9995
2 28912   9.3658  54.1535 0001716 345.3182 212.9689  1.00272994  7018
EUTELSAT 174A           
1 28924U 05052A   26169.85807618  .00000001  00000+0  00000+0 0  9993
2 28924   4.2248  76.5077 0006229   9.8567 303.5867  1.00271752 52344
ECHOSTAR 10             
1 28935U 06003A   26169.87298291 -.00000061  00000+0  00000+0 0  9992
2 28935   0.0165 351.5466 0001375  81.9984  37.6255  1.00270612 74486
SPAINSAT                
1 28945U 06007A   26169.34343161 -.00000223  00000+0  00000+0 0  9996
2 28945   0.5673  86.5058 0004753 357.2228 276.3133  1.00272730 74234
JCSAT-5A                
1 29045U 06010A   26169.92099884 -.00000334  00000+0  00000+0 0  9999
2 29045   1.1150  84.1985 0001955 346.9947 299.5684  1.00271988 73781
ASTRA 1KR               
1 29055U 06012A   26169.89861270  .00000112  00000+0  00000+0 0  9997
2 29055   0.4793  83.2038 0003347   0.1563 166.2439  1.00272362 45713
GALAXY 16 (G-16)        
1 29236U 06023A   26169.87532292 -.00000133  00000+0  00000+0 0  9991
2 29236   0.0117  97.4765 0002517 346.7012  39.0426  1.00271481 72994
